{
  "type": "FeatureCollection",
  "features": [
    {
      "type": "Feature",
      "properties": {
        "norad_id": 66425,
        "name": "STARLINK-35555",
        "group": "last-30-days",
        "lat": -4.279612847264923,
        "lon": 65.06765951638093,
        "alt_km": 444.12981414969545,
        "timestamp": "2025-12-08T23:34:02.738487+00:00",
        "meta_object_name": "STARLINK-35555",
        "meta_object_id": "2025-259D",
        "meta_epoch": "2025-12-08T14:00:01.999872",
        "meta_mean_motion": 15.40649227,
        "meta_eccentricity": 0.00012172,
        "meta_inclination": 43.0005,
        "meta_ra_of_asc_node": 71.9712,
        "meta_arg_of_pericenter": 277.6865,
        "meta_mean_anomaly": 22.5605,
        "meta_ephemeris_type": 0,
        "meta_classification_type": "U",
        "meta_norad_cat_id": 66425,
        "meta_element_set_no": 999,
        "meta_rev_at_epoch": 561,
        "meta_bstar": 0.0014711866,
        "meta_mean_motion_dot": 0.00061544,
        "meta_mean_motion_ddot": 0,
        "tle_line1": "1 66425U 25259D   25342.58335648  .00061544  00000+0  14712-2 0  9990",
        "tle_line2": "2 66425  43.0005  71.9712 0001217 277.6865  22.5605 15.40649227  5618"
      },
      "geometry": {
        "type": "Point",
        "coordinates": [
          65.06765951638093,
          -4.279612847264923
        ]
      }
    },
    {
      "type": "Feature",
      "properties": {
        "norad_id": 66426,
        "name": "STARLINK-35589",
        "group": "last-30-days",
        "lat": 4.195954244997612,
        "lon": 74.16050056708794,
        "alt_km": 443.441878783271,
        "timestamp": "2025-12-08T23:34:02.738497+00:00",
        "meta_object_name": "STARLINK-35589",
        "meta_object_id": "2025-259E",
        "meta_epoch": "2025-12-08T14:00:01.999872",
        "meta_mean_motion": 15.40646569,
        "meta_eccentricity": 0.00012239,
        "meta_inclination": 43.0008,
        "meta_ra_of_asc_node": 71.9426,
        "meta_arg_of_pericenter": 259.3287,
        "meta_mean_anomaly": 53.3587,
        "meta_ephemeris_type": 0,
        "meta_classification_type": "U",
        "meta_norad_cat_id": 66426,
        "meta_element_set_no": 999,
        "meta_rev_at_epoch": 561,
        "meta_bstar": 0.0017706301,
        "meta_mean_motion_dot": 0.00074251,
        "meta_mean_motion_ddot": 0,
        "tle_line1": "1 66426U 25259E   25342.58335648  .00074251  00000+0  17706-2 0  9996",
        "tle_line2": "2 66426  43.0008  71.9426 0001223 259.3287  53.3587 15.40646569  5613"
      },
      "geometry": {
        "type": "Point",
        "coordinates": [
          74.16050056708794,
          4.195954244997612
        ]
      }
    },
    {
      "type": "Feature",
      "properties": {
        "norad_id": 66427,
        "name": "STARLINK-35611",
        "group": "last-30-days",
        "lat": 12.564788299807452,
        "lon": 83.45090155445484,
        "alt_km": 442.04181131276073,
        "timestamp": "2025-12-08T23:34:02.738513+00:00",
        "meta_object_name": "STARLINK-35611",
        "meta_object_id": "2025-259F",
        "meta_epoch": "2025-12-08T14:00:01.999872",
        "meta_mean_motion": 15.40644421,
        "meta_eccentricity": 0.00012202,
        "meta_inclination": 43.0008,
        "meta_ra_of_asc_node": 71.9106,
        "meta_arg_of_pericenter": 287.9265,
        "meta_mean_anomaly": 37.2149,
        "meta_ephemeris_type": 0,
        "meta_classification_type": "U",
        "meta_norad_cat_id": 66427,
        "meta_element_set_no": 999,
        "meta_rev_at_epoch": 561,
        "meta_bstar": 0.0013800813,
        "meta_mean_motion_dot": 0.00057676,
        "meta_mean_motion_ddot": 0,
        "tle_line1": "1 66427U 25259F   25342.58335648  .00057676  00000+0  13801-2 0  9991",
        "tle_line2": "2 66427  43.0008  71.9106 0001220 287.9265  37.2149 15.40644421  5619"
      },
      "geometry": {
        "type": "Point",
        "coordinates": [
          83.45090155445484,
          12.564788299807452
        ]
      }
    },
    {
      "type": "Feature",
      "properties": {
        "norad_id": 66428,
        "name": "STARLINK-35610",
        "group": "last-30-days",
        "lat": 20.614382676913277,
        "lon": 93.38979489058327,
        "alt_km": 441.5005378779015,
        "timestamp": "2025-12-08T23:34:02.738524+00:00",
        "meta_object_name": "STARLINK-35610",
        "meta_object_id": "2025-259G",
        "meta_epoch": "2025-12-08T14:00:01.999872",
        "meta_mean_motion": 15.4072057,
        "meta_eccentricity": 0.00018937,
        "meta_inclination": 43.0008,
        "meta_ra_of_asc_node": 71.8802,
        "meta_arg_of_pericenter": 273.6909,
        "meta_mean_anomaly": 63.9013,
        "meta_ephemeris_type": 0,
        "meta_classification_type": "U",
        "meta_norad_cat_id": 66428,
        "meta_element_set_no": 999,
        "meta_rev_at_epoch": 561,
        "meta_bstar": -0.0023877483,
        "meta_mean_motion_dot": -0.00098836,
        "meta_mean_motion_ddot": 0,
        "tle_line1": "1 66428U 25259G   25342.58335648 -.00098836  00000+0 -23877-2 0  9991",
        "tle_line2": "2 66428  43.0008  71.8802 0001893 273.6909  63.9013 15.40720570  5611"
      },
      "geometry": {
        "type": "Point",
        "coordinates": [
          93.38979489058327,
          20.614382676913277
        ]
      }
    },
    {
      "type": "Feature",
      "properties": {
        "norad_id": 66429,
        "name": "STARLINK-35533",
        "group": "last-30-days",
        "lat": 27.993632006499958,
        "lon": 104.33110464949738,
        "alt_km": 440.0447350816976,
        "timestamp": "2025-12-08T23:34:02.738535+00:00",
        "meta_object_name": "STARLINK-35533",
        "meta_object_id": "2025-259H",
        "meta_epoch": "2025-12-08T14:00:01.999872",
        "meta_mean_motion": 15.40651181,
        "meta_eccentricity": 0.00011847,
        "meta_inclination": 43.0008,
        "meta_ra_of_asc_node": 71.8488,
        "meta_arg_of_pericenter": 278.1678,
        "meta_mean_anomaly": 71.8486,
        "meta_ephemeris_type": 0,
        "meta_classification_type": "U",
        "meta_norad_cat_id": 66429,
        "meta_element_set_no": 999,
        "meta_rev_at_epoch": 561,
        "meta_bstar": 0.0013566643,
        "meta_mean_motion_dot": 0.00056697,
        "meta_mean_motion_ddot": 0,
        "tle_line1": "1 66429U 25259H   25342.58335648  .00056697  00000+0  13567-2 0  9994",
        "tle_line2": "2 66429  43.0008  71.8488 0001184 278.1678  71.8486 15.40651181  5611"
      },
      "geometry": {
        "type": "Point",
        "coordinates": [
          104.33110464949738,
          27.993632006499958
        ]
      }
    },
    {
      "type": "Feature",
      "properties": {
        "norad_id": 66430,
        "name": "STARLINK-35470",
        "group": "last-30-days",
        "lat": 34.38482790943484,
        "lon": 116.7744376791012,
        "alt_km": 439.31189926933985,
        "timestamp": "2025-12-08T23:34:02.738545+00:00",
        "meta_object_name": "STARLINK-35470",
        "meta_object_id": "2025-259J",
        "meta_epoch": "2025-12-08T14:00:01.999872",
        "meta_mean_motion": 15.40679975,
        "meta_eccentricity": 0.00019219,
        "meta_inclination": 43.0008,
        "meta_ra_of_asc_node": 71.8198,
        "meta_arg_of_pericenter": 282.935,
        "meta_mean_anomaly": 79.4364,
        "meta_ephemeris_type": 0,
        "meta_classification_type": "U",
        "meta_norad_cat_id": 66430,
        "meta_element_set_no": 999,
        "meta_rev_at_epoch": 561,
        "meta_bstar": 0.0016436735,
        "meta_mean_motion_dot": 0.00068935,
        "meta_mean_motion_ddot": 0,
        "tle_line1": "1 66430U 25259J   25342.58335648  .00068935  00000+0  16437-2 0  9993",
        "tle_line2": "2 66430  43.0008  71.8198 0001921 282.9350  79.4364 15.40679975  5610"
      },
      "geometry": {
        "type": "Point",
        "coordinates": [
          116.7744376791012,
          34.38482790943484
        ]
      }
    },
    {
      "type": "Feature",
      "properties": {
        "norad_id": 66431,
        "name": "STARLINK-35439",
        "group": "last-30-days",
        "lat": 39.30411037829034,
        "lon": 130.94607645412282,
        "alt_km": 438.4643674297049,
        "timestamp": "2025-12-08T23:34:02.738555+00:00",
        "meta_object_name": "STARLINK-35439",
        "meta_object_id": "2025-259K",
        "meta_epoch": "2025-12-08T14:00:01.999872",
        "meta_mean_motion": 15.40632044,
        "meta_eccentricity": 0.00010104,
        "meta_inclination": 43.0009,
        "meta_ra_of_asc_node": 71.7879,
        "meta_arg_of_pericenter": 269.3228,
        "meta_mean_anomaly": 105.4835,
        "meta_ephemeris_type": 0,
        "meta_classification_type": "U",
        "meta_norad_cat_id": 66431,
        "meta_element_set_no": 999,
        "meta_rev_at_epoch": 561,
        "meta_bstar": 0.0015489964,
        "meta_mean_motion_dot": 0.00064806,
        "meta_mean_motion_ddot": 0,
        "tle_line1": "1 66431U 25259K   25342.58335648  .00064806  00000+0  15490-2 0  9995",
        "tle_line2": "2 66431  43.0009  71.7879 0001010 269.3228 105.4835 15.40632044  5618"
      },
      "geometry": {
        "type": "Point",
        "coordinates": [
          130.94607645412282,
          39.30411037829034
        ]
      }
    }
  ]
}